{
  "type": "FeatureCollection",
  "features": [
    {
      "type": "Feature",
      "properties": {
        "norad_id": 30629,
        "name": "FENGYUN 1C DEB",
        "group": "fengyun-1c-debris",
        "lat": 78.10820428516502,
        "lon": -48.87912875669713,
        "alt_km": 688.9510393452019,
        "timestamp": "2025-12-10T16:57:11.914278+00:00",
        "meta_object_name": "FENGYUN 1C DEB",
        "meta_object_id": "1999-025ANL",
        "meta_epoch": "2025-12-10T05:16:34.544064",
        "meta_mean_motion": 14.59453912,
        "meta_eccentricity": 0.0007697,
        "meta_inclination": 99.2512,
        "meta_ra_of_asc_node": 79.8655,
        "meta_arg_of_pericenter": 204.2057,
        "meta_mean_anomaly": 218.4962,
        "meta_ephemeris_type": 0,
        "meta_classification_type": "U",
        "meta_norad_cat_id": 30629,
        "meta_element_set_no": 999,
        "meta_rev_at_epoch": 97853,
        "meta_bstar": 0.0047347,
        "meta_mean_motion_dot": 0.00022478,
        "meta_mean_motion_ddot": 0,
        "tle_line1": "1 30629U 99025ANL 25344.21984426  .00022478  00000+0  47347-2 0  9998",
        "tle_line2": "2 30629  99.2512  79.8655 0007697 204.2057 218.4962 14.59453912978536"
      },
      "geometry": {
        "type": "Point",
        "coordinates": [
          -48.87912875669713,
          78.10820428516502
        ]
      }
    },
    {
      "type": "Feature",
      "properties": {
        "norad_id": 30630,
        "name": "FENGYUN 1C DEB",
        "group": "fengyun-1c-debris",
        "lat": -31.98240626328393,
        "lon": 163.45255510895524,
        "alt_km": 830.5392410296927,
        "timestamp": "2025-12-10T16:57:11.914288+00:00",
        "meta_object_name": "FENGYUN 1C DEB",
        "meta_object_id": "1999-025ANM",
        "meta_epoch": "2025-12-10T10:39:01.574208",
        "meta_mean_motion": 14.22363681,
        "meta_eccentricity": 0.002598,
        "meta_inclination": 99.1729,
        "meta_ra_of_asc_node": 157.3885,
        "meta_arg_of_pericenter": 81.0772,
        "meta_mean_anomaly": 342.8563,
        "meta_ephemeris_type": 0,
        "meta_classification_type": "U",
        "meta_norad_cat_id": 30630,
        "meta_element_set_no": 999,
        "meta_rev_at_epoch": 97180,
        "meta_bstar": 0.0013138,
        "meta_mean_motion_dot": 2.886e-05,
        "meta_mean_motion_ddot": 0,
        "tle_line1": "1 30630U 99025ANM 25344.44376822  .00002886  00000+0  13138-2 0  9992",
        "tle_line2": "2 30630  99.1729 157.3885 0025980  81.0772 342.8563 14.22363681971809"
      },
      "geometry": {
        "type": "Point",
        "coordinates": [
          163.45255510895524,
          -31.98240626328393
        ]
      }
    },
    {
      "type": "Feature",
      "properties": {
        "norad_id": 30632,
        "name": "FENGYUN 1C DEB",
        "group": "fengyun-1c-debris",
        "lat": -43.59560186303813,
        "lon": -72.58795233395813,
        "alt_km": 684.3145017881225,
        "timestamp": "2025-12-10T16:57:11.914298+00:00",
        "meta_object_name": "FENGYUN 1C DEB",
        "meta_object_id": "1999-025ANP",
        "meta_epoch": "2025-12-10T07:51:28.287072",
        "meta_mean_motion": 14.62604263,
        "meta_eccentricity": 0.00151,
        "meta_inclination": 98.8235,
        "meta_ra_of_asc_node": 115.5124,
        "meta_arg_of_pericenter": 176.5378,
        "meta_mean_anomaly": 213.1863,
        "meta_ephemeris_type": 0,
        "meta_classification_type": "U",
        "meta_norad_cat_id": 30632,
        "meta_element_set_no": 999,
        "meta_rev_at_epoch": 97656,
        "meta_bstar": 0.0059803,
        "meta_mean_motion_dot": 0.00030516,
        "meta_mean_motion_ddot": 0,
        "tle_line1": "1 30632U 99025ANP 25344.32741073  .00030516  00000+0  59803-2 0  9995",
        "tle_line2": "2 30632  98.8235 115.5124 0015100 176.5378 213.1863 14.62604263976565"
      },
      "geometry": {
        "type": "Point",
        "coordinates": [
          -72.58795233395813,
          -43.59560186303813
        ]
      }
    },
    {
      "type": "Feature",
      "properties": {
        "norad_id": 30633,
        "name": "FENGYUN 1C DEB",
        "group": "fengyun-1c-debris",
        "lat": 2.4641771666693524,
        "lon": 30.220538536431174,
        "alt_km": 877.7413641499734,
        "timestamp": "2025-12-10T16:57:11.914307+00:00",
        "meta_object_name": "FENGYUN 1C DEB",
        "meta_object_id": "1999-025ANQ",
        "meta_epoch": "2025-12-09T14:34:27.481728",
        "meta_mean_motion": 14.04375509,
        "meta_eccentricity": 0.0130473,
        "meta_inclination": 98.4203,
        "meta_ra_of_asc_node": 208.8357,
        "meta_arg_of_pericenter": 269.1329,
        "meta_mean_anomaly": 115.9506,
        "meta_ephemeris_type": 0,
        "meta_classification_type": "U",
        "meta_norad_cat_id": 30633,
        "meta_element_set_no": 999,
        "meta_rev_at_epoch": 95848,
        "meta_bstar": 0.0013932,
        "meta_mean_motion_dot": 2.352e-05,
        "meta_mean_motion_ddot": 0,
        "tle_line1": "1 30633U 99025ANQ 25343.60726252  .00002352  00000+0  13932-2 0  9998",
        "tle_line2": "2 30633  98.4203 208.8357 0130473 269.1329 115.9506 14.04375509958485"
      },
      "geometry": {
        "type": "Point",
        "coordinates": [
          30.220538536431174,
          2.4641771666693524
        ]
      }
    },
    {
      "type": "Feature",
      "properties": {
        "norad_id": 30634,
        "name": "FENGYUN 1C DEB",
        "group": "fengyun-1c-debris",
        "lat": 32.97649751148757,
        "lon": 153.5586204436126,
        "alt_km": 795.1708949899385,
        "timestamp": "2025-12-10T16:57:11.914317+00:00",
        "meta_object_name": "FENGYUN 1C DEB",
        "meta_object_id": "1999-025ANR",
        "meta_epoch": "2025-12-10T11:43:46.386048",
        "meta_mean_motion": 14.09681506,
        "meta_eccentricity": 0.0120701,
        "meta_inclination": 99.2927,
        "meta_ra_of_asc_node": 327.2359,
        "meta_arg_of_pericenter": 102.8744,
        "meta_mean_anomaly": 18.6322,
        "meta_ephemeris_type": 0,
        "meta_classification_type": "U",
        "meta_norad_cat_id": 30634,
        "meta_element_set_no": 999,
        "meta_rev_at_epoch": 95585,
        "meta_bstar": 0.0030314,
        "meta_mean_motion_dot": 5.645e-05,
        "meta_mean_motion_ddot": 0,
        "tle_line1": "1 30634U 99025ANR 25344.48873132  .00005645  00000+0  30314-2 0  9997",
        "tle_line2": "2 30634  99.2927 327.2359 0120701 102.8744  18.6322 14.09681506955858"
      },
      "geometry": {
        "type": "Point",
        "coordinates": [
          153.5586204436126,
          32.97649751148757
        ]
      }
    },
    {
      "type": "Feature",
      "properties": {
        "norad_id": 30639,
        "name": "FENGYUN 1C DEB",
        "group": "fengyun-1c-debris",
        "lat": 7.5145870476752235,
        "lon": 95.4112945294133,
        "alt_km": 777.792433411084,
        "timestamp": "2025-12-10T16:57:11.914327+00:00",
        "meta_object_name": "FENGYUN 1C DEB",
        "meta_object_id": "1999-025ANW",
        "meta_epoch": "2025-12-10T06:51:30.193632",
        "meta_mean_motion": 14.32267619,
        "meta_eccentricity": 0.0067366,
        "meta_inclination": 99.0181,
        "meta_ra_of_asc_node": 96.1745,
        "meta_arg_of_pericenter": 288.3818,
        "meta_mean_anomaly": 71.0047,
        "meta_ephemeris_type": 0,
        "meta_classification_type": "U",
        "meta_norad_cat_id": 30639,
        "meta_element_set_no": 999,
        "meta_rev_at_epoch": 96684,
        "meta_bstar": 0.0045158,
        "meta_mean_motion_dot": 0.00012465,
        "meta_mean_motion_ddot": 0,
        "tle_line1": "1 30639U 99025ANW 25344.28576613  .00012465  00000+0  45158-2 0  9994",
        "tle_line2": "2 30639  99.0181  96.1745 0067366 288.3818  71.0047 14.32267619966842"
      },
      "geometry": {
        "type": "Point",
        "coordinates": [
          95.4112945294133,
          7.5145870476752235
        ]
      }
    },
    {
      "type": "Feature",
      "properties": {
        "norad_id": 30640,
        "name": "FENGYUN 1C DEB",
        "group": "fengyun-1c-debris",
        "lat": -80.67789121288666,
        "lon": 132.20738759666978,
        "alt_km": 907.7459057290835,
        "timestamp": "2025-12-10T16:57:11.914337+00:00",
        "meta_object_name": "FENGYUN 1C DEB",
        "meta_object_id": "1999-025ANX",
        "meta_epoch": "2025-12-10T03:55:50.191968",
        "meta_mean_motion": 14.14608582,
        "meta_eccentricity": 0.00811132,
        "meta_inclination": 99.0566,
        "meta_ra_of_asc_node": 55.3335,
        "meta_arg_of_pericenter": 107.8156,
        "meta_mean_anomaly": 282.3824,
        "meta_ephemeris_type": 0,
        "meta_classification_type": "U",
        "meta_norad_cat_id": 30640,
        "meta_element_set_no": 999,
        "meta_rev_at_epoch": 96409,
        "meta_bstar": 0.0018745378,
        "meta_mean_motion_dot": 3.674e-05,
        "meta_mean_motion_ddot": 0,
        "tle_line1": "1 30640U 99025ANX 25344.16377537  .00003674  00000+0  18745-2 0  9991",
        "tle_line2": "2 30640  99.0566  55.3335 0081113 107.8156 282.3824 14.14608582964092"
      },
      "geometry": {
        "type": "Point",
        "coordinates": [
          132.20738759666978,
          -80.67789121288666
        ]
      }
    }
  ]
}